NORAD_CAT_ID,OBJECT_NAME,OBJECT_TYPE,EPOCH,MEAN_MOTION,ECCENTRICITY,INCLINATION,RA_OF_ASC_NODE,ARG_OF_PERICENTER,MEAN_ANOMALY,BSTAR,MEAN_MOTION_DOT,MEAN_MOTION_DDOT,TLE_LINE0,TLE_LINE1,TLE_LINE2,SEMIMAJOR_AXIS,PERIOD,APOGEE,PERIGEE,DECAYED
51880.0,STARLINK-3566,PAYLOAD,2023-09-25 18:32:32,15.08855714,0.0001302,53.2161,70.7655,91.5502,268.5639,0.00053477,8.237e-05,0.0,0 STARLINK-3566,1 51880U 22022AE  23268.77259805  .00008237  00000-0  53477-3 0  9993,2 51880  53.2161  70.7655 0001302  91.5502 268.5639 15.08855714 87862,6917.832,95.437,540.598,538.797,0.0
51880.0,STARLINK-3566,PAYLOAD,2023-09-26 16:47:56,15.0884485,0.000143,53.2159,66.6031,94.6944,265.4211,0.00033211,5.002e-05,0.0,0 STARLINK-3566,1 51880U 22022AE  23269.69996388  .00005002  00000-0  33211-3 0  9990,2 51880  53.2159  66.6031 0001430  94.6944 265.4211 15.08844850 88005,6917.866,95.437,540.72,538.741,0.0
51880.0,STARLINK-3566,PAYLOAD,2023-09-26 19:58:43,15.08846279,0.0001493,53.216,66.0085,84.2176,275.8986,0.00040457,6.158e-05,0.0,0 STARLINK-3566,1 51880U 22022AE  23269.83244432  .00006158  00000-0  40457-3 0  9995,2 51880  53.2160  66.0085 0001493  84.2176 275.8986 15.08846279 88024,6917.861,95.437,540.759,538.693,0.0
51880.0,STARLINK-3566,PAYLOAD,2023-09-27 10:17:11,15.08837827,0.0001665,53.2157,63.3321,84.104,276.0142,0.00021217,3.09e-05,0.0,0 STARLINK-3566,1 51880U 22022AE  23270.42860837  .00003090  00000-0  21217-3 0  9990,2 51880  53.2157  63.3321 0001665  84.1040 276.0142 15.08837827 88119,6917.887,95.438,540.904,538.6,0.0
51880.0,STARLINK-3566,PAYLOAD,2023-09-28 13:18:45,15.08840593,0.0001664,53.2164,58.2768,100.087,260.031,0.00034844,5.262e-05,0.0,0 STARLINK-3566,1 51880U 22022AE  23271.55468889  .00005262  00000-0  34844-3 0  9999,2 51880  53.2164  58.2768 0001664 100.0870 260.0310 15.08840593 88285,6917.879,95.438,540.895,538.592,0.0
51880.0,STARLINK-3566,PAYLOAD,2023-09-28 14:54:08,15.08841802,0.0001528,53.2157,57.9791,96.8439,263.2727,0.00032699,4.92e-05,0.0,0 STARLINK-3566,1 51880U 22022AE  23271.62092821  .00004920  00000-0  32699-3 0  9992,2 51880  53.2157  57.9791 0001528  96.8439 263.2727 15.08841802 88293,6917.875,95.437,540.797,538.683,0.0
51880.0,STARLINK-3566,PAYLOAD,2023-09-28 19:40:17,15.08848774,0.0001467,53.216,57.0866,89.7574,270.3586,0.00026865,3.991e-05,0.0,0 STARLINK-3566,1 51880U 22022AE  23271.81964451  .00003991  00000-0  26865-3 0  9995,2 51880  53.2160  57.0866 0001467  89.7574 270.3586 15.08848774 88325,6917.854,95.437,540.733,538.704,0.0
51880.0,STARLINK-3566,PAYLOAD,2023-09-29 13:09:31,15.08841647,0.0001464,53.2166,53.8131,103.8214,256.2941,1.2524e-05,-8.9e-07,0.0,0 STARLINK-3566,1 51880U 22022AE  23272.54828649 -.00000089  00000-0  12524-4 0  9998,2 51880  53.2166  53.8131 0001464 103.8214 256.2941 15.08841647 88438,6917.875,95.437,540.753,538.728,0.0
51880.0,STARLINK-3566,PAYLOAD,2023-09-29 14:44:54,15.08845242,0.0001684,53.2173,53.5141,117.4277,242.6886,5.4979e-05,5.87e-06,0.0,0 STARLINK-3566,1 51880U 22022AE  23272.61452475  .00000587  00000-0  54979-4 0  9998,2 51880  53.2173  53.5141 0001684 117.4277 242.6886 15.08845242 88441,6917.864,95.437,540.894,538.564,0.0
51880.0,STARLINK-3566,PAYLOAD,2023-09-30 16:11:04,15.08850981,0.0001294,53.217,48.7599,83.3968,276.7171,0.00017529,2.504e-05,0.0,0 STARLINK-3566,1 51880U 22022AE  23273.67436044  .00002504  00000-0  17529-3 0  9999,2 51880  53.2170  48.7599 0001294  83.3968 276.7171 15.08850981 88605,6917.847,95.437,540.607,538.817,0.0
51880.0,STARLINK-3566,PAYLOAD,2023-10-01 08:04:56,15.08841683,0.0001251,53.2161,45.7876,86.9823,273.1312,0.00010763,1.426e-05,0.0,0 STARLINK-3566,1 51880U 22022AE  23274.33676435  .00001426  00000-0  10763-3 0  9998,2 51880  53.2161  45.7876 0001251  86.9823 273.1312 15.08841683 88700,6917.875,95.437,540.606,538.875,0.0
51880.0,STARLINK-3566,PAYLOAD,2023-10-01 12:51:05,15.08845811,0.0001256,53.2175,44.8962,85.5207,274.5928,5.0077e-05,5.09e-06,0.0,0 STARLINK-3566,1 51880U 22022AE  23274.53548127  .00000509  00000-0  50077-4 0  9990,2 51880  53.2175  44.8962 0001256  85.5207 274.5928 15.08845811 88735,6917.863,95.437,540.597,538.859,0.0
51880.0,STARLINK-3566,PAYLOAD,2023-10-01 19:12:37,15.08856392,0.0001453,53.2191,43.7066,100.4434,259.6721,0.00021663,3.163e-05,0.0,0 STARLINK-3566,1 51880U 22022AE  23274.80043433  .00003163  00000-0  21663-3 0  9997,2 51880  53.2191  43.7066 0001453 100.4434 259.6721 15.08856392 88779,6917.83,95.437,540.7,538.69,0.0
51880.0,STARLINK-3566,PAYLOAD,2023-10-02 12:41:53,15.08831538,0.0001533,53.217,40.4348,93.3097,266.8071,-0.00016406,-2.897e-05,0.0,0 STARLINK-3566,1 51880U 22022AE  23275.52908902 -.00002897  00000-0 -16406-3 0  9992,2 51880  53.2170  40.4348 0001533  93.3097 266.8071 15.08831538 88882,6917.906,95.438,540.832,538.711,0.0
51880.0,STARLINK-3566,PAYLOAD,2023-10-02 15:52:39,15.08834447,0.0001401,53.2174,39.8395,82.1535,277.9617,-0.00011001,-2.038e-05,0.0,0 STARLINK-3566,1 51880U 22022AE  23275.66156813 -.00002038  00000-0 -11001-3 0  9996,2 51880  53.2174  39.8395 0001401  82.1535 277.9617 15.08834447 88901,6917.897,95.438,540.732,538.793,0.0
51880.0,STARLINK-3566,PAYLOAD,2023-10-03 12:32:40,15.08840246,0.0001589,53.2192,35.9756,88.9361,271.1813,0.00011743,1.581e-05,0.0,0 STARLINK-3566,1 51880U 22022AE  23276.52269052  .00001581  00000-0  11743-3 0  9995,2 51880  53.2192  35.9756 0001589  88.9361 271.1813 15.08840246 89030,6917.88,95.438,540.844,538.645,0.0
51880.0,STARLINK-3566,PAYLOAD,2023-10-03 14:08:03,15.08844353,0.0001544,53.2184,35.6772,85.7298,274.387,0.00011861,1.6e-05,0.0,0 STARLINK-3566,1 51880U 22022AE  23276.58892862  .00001600  00000-0  11861-3 0  9995,2 51880  53.2184  35.6772 0001544  85.7298 274.3870 15.08844353 89043,6917.867,95.437,540.8,538.664,0.0
51880.0,STARLINK-3566,PAYLOAD,2023-10-03 15:43:26,15.08844331,0.0001584,53.2183,35.38,85.4948,274.6225,0.00024884,3.675e-05,0.0,0 STARLINK-3566,1 51880U 22022AE  23276.65516946  .00003675  00000-0  24884-3 0  9992,2 51880  53.2183  35.3800 0001584  85.4948 274.6225 15.08844331 89058,6917.867,95.437,540.828,538.636,0.0
51880.0,STARLINK-3566,PAYLOAD,2023-10-04 13:58:50,15.08847559,0.000145,53.2174,31.2175,96.6788,263.4369,0.00032953,4.961e-05,0.0,0 STARLINK-3566,1 51880U 22022AE  23277.58252866  .00004961  00000-0  32953-3 0  9998,2 51880  53.2174  31.2175 0001450  96.6788 263.4369 15.08847559 89191,6917.857,95.437,540.725,538.719,0.0
51880.0,STARLINK-3566,PAYLOAD,2023-10-05 10:38:51,15.08842502,0.0001625,53.2167,27.3513,86.5118,273.606,0.0001218,1.651e-05,0.0,0 STARLINK-3566,1 51880U 22022AE  23278.44365047  .00001651  00000-0  12180-3 0  9993,2 51880  53.2167  27.3513 0001625  86.5118 273.6060 15.08842502 89323,6917.873,95.437,540.862,538.614,0.0
51880.0,STARLINK-3566,PAYLOAD,2023-10-05 13:49:37,15.08846178,0.000151,53.217,26.7563,86.923,273.1935,0.00018082,2.591e-05,0.0,0 STARLINK-3566,1 51880U 22022AE  23278.57612846  .00002591  00000-0  18082-3 0  9990,2 51880  53.2170  26.7563 0001510  86.9230 273.1935 15.08846178 89348,6917.862,95.437,540.771,538.682,0.0
51880.0,STARLINK-3566,PAYLOAD,2023-10-05 18:35:46,15.08860057,0.0001413,53.2178,25.8634,81.8311,278.2841,0.00042263,6.448e-05,0.0,0 STARLINK-3566,1 51880U 22022AE  23278.77484296  .00006448  00000-0  42263-3 0  9991,2 51880  53.2178  25.8634 0001413  81.8311 278.2841 15.08860057 89378,6917.819,95.436,540.662,538.707,0.0
51880.0,STARLINK-3566,PAYLOAD,2023-10-06 07:18:52,15.08826456,0.0001086,53.218,23.4881,66.9789,293.1317,-0.00018159,-3.175e-05,0.0,0 STARLINK-3566,1 51880U 22022AE  23279.30477657 -.00003175  00000-0 -18159-3 0  9997,2 51880  53.2180  23.4881 0001086  66.9789 293.1317 15.08826456 89456,6917.922,95.438,540.538,539.036,0.0
51880.0,STARLINK-3566,PAYLOAD,2023-10-06 13:40:25,15.08834534,0.0001195,53.2179,22.2962,83.9435,276.1693,-2.0735e-05,-6.18e-06,0.0,0 STARLINK-3566,1 51880U 22022AE  23279.56973518 -.00000618  00000-0 -20735-4 0  9995,2 51880  53.2179  22.2962 0001195  83.9435 276.1693 15.08834534 89497,6917.897,95.438,540.589,538.935,0.0
51880.0,STARLINK-3566,PAYLOAD,2023-10-07 13:31:12,15.08847648,0.0001304,53.2184,17.8381,81.1052,279.0088,0.0004361,6.661e-05,0.0,0 STARLINK-3566,1 51880U 22022AE  23280.56333672  .00006661  00000-0  43610-3 0  9996,2 51880  53.2184  17.8381 0001304  81.1052 279.0088 15.08847648 89642,6917.857,95.437,540.624,538.82,0.0
51880.0,STARLINK-3566,PAYLOAD,2023-10-08 10:11:13,15.08840756,0.000154,53.2182,13.9723,87.9534,272.1634,9.8727e-05,1.284e-05,0.0,0 STARLINK-3566,1 51880U 22022AE  23281.42445870  .00001284  00000-0  98727-4 0  9992,2 51880  53.2182  13.9723 0001540  87.9534 272.1634 15.08840756 89776,6917.878,95.438,540.808,538.678,0.0
51880.0,STARLINK-3566,PAYLOAD,2023-10-08 13:21:59,15.08850408,0.0001375,53.2173,13.3765,84.188,275.9269,0.0003657,5.539e-05,0.0,0 STARLINK-3566,1 51880U 22022AE  23281.55693586  .00005539  00000-0  36570-3 0  9999,2 51880  53.2173  13.3765 0001375  84.1880 275.9269 15.08850408 89797,6917.849,95.437,540.665,538.762,0.0
51880.0,STARLINK-3566,PAYLOAD,2023-10-09 13:12:46,15.08853454,0.0001547,53.2182,8.9166,98.3884,261.7283,0.00034568,5.22e-05,0.0,0 STARLINK-3566,1 51880U 22022AE  23282.55053322  .00005220  00000-0  34568-3 0  9990,2 51880  53.2182   8.9166 0001547  98.3884 261.7283 15.08853454 89944,6917.839,95.437,540.774,538.634,0.0
51880.0,STARLINK-3566,PAYLOAD,2023-10-10 13:03:32,15.08852699,0.0001565,53.2181,4.4551,88.6795,271.4376,0.00025572,3.786e-05,0.0,0 STARLINK-3566,1 51880U 22022AE  23283.54413113  .00003786  00000-0  25572-3 0  9998,2 51880  53.2181   4.4551 0001565  88.6795 271.4376 15.08852699 90094,6917.842,95.437,540.789,538.624,0.0
51880.0,STARLINK-3566,PAYLOAD,2023-10-11 12:54:20,15.08838312,0.0001587,53.2181,359.9949,99.2334,260.8838,5.3949e-05,5.71e-06,0.0,0 STARLINK-3566,1 51880U 22022AE  23284.53773938  .00000571  00000-0  53949-4 0  9991,2 51880  53.2181 359.9949 0001587  99.2334 260.8838 15.08838312 90242,6917.886,95.438,540.848,538.653,0.0
